{
  "norad_id": 27858,
  "name": "SCISAT 1",
  "history": [
    {
      "epoch": "2026-03-28T19:05:20.818176",
      "apogee_km": 629.388668878757,
      "perigee_km": 620.7601521640818,
      "latitude_deg": 70.36730084114214,
      "longitude_deg": -77.84353535994887,
      "semi_major_axis_km": 7003.21141052142,
      "eccentricity": 0.00061604,
      "inclination_deg": 73.9313,
      "raan_deg": 331.0635,
      "arg_perigee_deg": 47.6107,
      "mean_anomaly_deg": 312.5589,
      "mean_motion_rev_day": 14.81347356
    },
    {
      "epoch": "2026-03-29T01:34:20.624736",
      "apogee_km": 629.394165387841,
      "perigee_km": 620.7508042416821,
      "latitude_deg": -47.739056303377374,
      "longitude_deg": -51.910416959784925,
      "semi_major_axis_km": 7003.209484814762,
      "eccentricity": 0.0006171,
      "inclination_deg": 73.9312,
      "raan_deg": 330.5268,
      "arg_perigee_deg": 46.8929,
      "mean_anomaly_deg": 313.2762,
      "mean_motion_rev_day": 14.81347967
    }
  ]
}